LEMUR-1                 
1 40044U 14033AL  23340.03313836  .00003068  00000+0  42782-3 0  9994
2 40044  97.6780 145.9537 0055082 217.6329 142.1022 14.77376695509028
LEMUR-2-ANUBHAVTHAKUR   
1 41873U 16062E   23340.18208133  .00034811  00000+0  62353-3 0  9994
2 41873  51.6728 321.5271 0007322  48.2482 311.9132 15.49596953391804
LEMUR-2-SAM-AMELIA      
1 42781U 17036S   23339.85974342  .00073292  00000+0  83185-3 0  9991
2 42781  97.1177  17.5971 0004335 161.8646 198.2768 15.62111358359611
LEMUR-2-GREENBERG       
1 42837U 17042N   23339.51305126  .00006039  00000+0  49005-3 0  9999
2 42837  97.3796 172.9427 0012517 358.9486   1.1710 14.99934568348427
LEMUR-2-ANDIS           
1 42838U 17042P   23340.04630351  .00006231  00000+0  50597-3 0  9993
2 42838  97.3773 173.2817 0012480 356.0458   4.0666 14.99896924348501
LEMUR-2-MONSON          
1 42839U 17042Q   23339.50786752  .00006203  00000+0  51077-3 0  9993
2 42839  97.3813 172.4221 0011770   2.3937 357.7341 14.99364643348383
LEMUR-2-FURIAUS         
1 42840U 17042R   23340.08119357  .00007202  00000+0  59109-3 0  9995
2 42840  97.3778 173.3678 0010525   0.2813 359.8415 14.99449294348468
LEMUR-2-PETERG          
1 42841U 17042S   23339.52283292  .00007439  00000+0  61216-3 0  9997
2 42841  97.3816 174.1805 0011817 355.1646   4.9462 14.99327645348458
LEMUR-2-DEMBITZ         
1 42842U 17042T   23340.11814952  .00005734  00000+0  46831-3 0  9990
2 42842  97.3796 174.6998 0012059 354.1938   5.9144 14.99707464348567
LEMUR-2-ZACHARY         
1 42845U 17042W   23340.08633837  .00009042  00000+0  68624-3 0  9990
2 42845  97.3844 174.2690 0009624  21.2512 338.9112 15.02384330348677
LEMUR-2-JIN-LUEN        
1 43182U 18014C   23339.27761864  .00009931  00000+0  66109-3 0  9999
2 43182  97.6022 239.1845 0012341 305.4004  54.6071 15.07267111319349
LEMUR-2-URAMCHANSOL     
1 43183U 18014D   23340.15863745  .00011625  00000+0  73275-3 0  9995
2 43183  97.6005 240.8596 0012197 290.5410  69.4509 15.09236773319529
LEMUR-2-KADI            
1 43184U 18014E   23339.66468173  .00010627  00000+0  69357-3 0  9993
2 43184  97.5884 239.2287 0010135 278.2007  81.8072 15.07998392319408
LEMUR-2-THENICKMOLO     
1 43185U 18014F   23339.28729620  .00012697  00000+0  81887-3 0  9990
2 43185  97.5952 239.4346 0007188 287.4943  72.5499 15.08411224319368
LEMUR-2-CHRISTINAHOLT   
1 43882U 18111G   23339.25068953  .00016788  00000+0  10137-2 0  9998
2 43882  97.6423 246.2484 0006475 287.4084  72.6437 15.10762233270270
LEMUR-2-TINYKEV         
1 43883U 18111H   23339.97194117  .00019257  00000+0  10909-2 0  9991
2 43883  97.6218 246.9003 0006602 279.7264  80.3221 15.13035886268446
LEMUR-2-REMY-COLTON     
1 43884U 18111J   23339.28156908  .00014725  00000+0  88133-3 0  9992
2 43884  97.6362 247.0142 0001079  58.0483 302.0851 15.11127791268344
LEMUR-2-GUSTAVO         
1 43885U 18111K   23340.19856487  .00013640  00000+0  82811-3 0  9996
2 43885  97.6352 247.2217 0012394 278.5206  81.4618 15.10565155268431
LEMUR-2-ZO              
1 43886U 18111L   23339.72919344  .00014239  00000+0  86711-3 0  9994
2 43886  97.6244 246.5375 0011149 302.6151  57.4002 15.10457801270378
LEMUR-2-NATALIEMURRAY   
1 43887U 18111M   23339.27356324  .00013297  00000+0  80212-3 0  9991
2 43887  97.6376 247.1525 0007677 241.1908 118.8551 15.10843498270335
LEMUR-2-SARAHBETTYBOO   
1 43888U 18111N   23339.73611593  .00015344  00000+0  91047-3 0  9998
2 43888  97.6710 249.7379 0011219 337.6857  22.3883 15.11382500270424
LEMUR-2-DAISY-HARPER    
1 43889U 18111P   23339.23453288  .00019247  00000+0  11088-2 0  9991
2 43889  97.6600 249.0803 0009118 343.1496  16.9430 15.12416323270355
LEMUR-2-LILLYJO         
1 44396U 19038L   23339.52843540  .00179705  00000+0  20010-2 0  9991
2 44396  97.6386 330.4556 0017148  38.7447 321.5037 15.62083649245137
LEMUR-2-WANLI           
1 44402U 19038S   23339.71991725  .00177835  00000+0  18554-2 0  9991
2 44402  97.6390 331.0843 0014843  37.8488 322.3811 15.63807390245193
LEMUR-2-MORAG           
1 44403U 19038T   23339.90546072  .00100517  00000+0  15548-2 0  9997
2 44403  97.6507 330.1151 0016725  44.6063 315.6532 15.53565622245083
LEMUR-2-DUSTINTHEWIND   
1 44405U 19038V   23339.54088143  .00122271  00000+0  18064-2 0  9996
2 44405  97.6525 329.0631 0017884  34.7184 325.5233 15.54728802245031
LEMUR-2-ALEX-MADDY      
1 44407U 19038X   23339.92560757  .00048199  00000+0  11215-2 0  9993
2 44407  97.6683 326.4485 0016950  56.0765 304.2091 15.42004775244792
LEMUR-2-EJATTA          
1 44409U 19038Z   23339.71026186  .00138644  00000+0  18358-2 0  9995
2 44409  97.6454 330.6950 0017099  30.6584 329.5666 15.57656675245175
LEMUR-2-GREGROBINSON    
1 44411U 19038AB  23339.75294638  .00151531  00000+0  18533-2 0  9996
2 44411  97.6439 331.6647 0018614  46.5900 313.6902 15.59691423244849
LEMUR-2-YNDRD           
1 44413U 19038AD  23339.50166371  .00060118  00000+0  12969-2 0  9990
2 44413  97.6644 326.3549 0016962  44.9527 315.3091 15.44204972244786
LEMUR-2-JPGSQUARED      
1 44855U 19089D   23339.73843922  .00022780  00000+0  96802-3 0  9997
2 44855  36.9629 115.2170 0006179 353.9941   6.0733 15.22274847219112
LEMUR-2-HIMOMANDDAD     
1 44860U 19089J   23339.76006411  .00032449  00000+0  13230-2 0  9996
2 44860  36.9625 116.3073 0007379   4.5344 355.5471 15.23575172218988
LEMUR-2-PAPPY           
1 44861U 19089K   23339.76350992  .00028205  00000+0  12858-2 0  9993
2 44861  36.9591 121.8626 0006952 346.9382  13.1185 15.19821211218989
LEMUR-2-THEODOSIA       
1 44863U 19089M   23339.75932745  .00024973  00000+0  10377-2 0  9998
2 44863  36.9620 114.3608 0005306 353.0224   7.0450 15.23013330218973
LEMUR-2-ETHANOAKES      
1 46298U 20061AC  23340.20542324  .00078471  00000+0  98452-3 0  9999
2 46298  97.3851  57.8852 0002986 112.1888 247.9685 15.59471293180706
LEMUR-2-OSCARLATOR      
1 46299U 20061AD  23340.19900553  .00114518  00000+0  84385-3 0  9993
2 46299  97.3855  61.2759 0004627 128.9456 231.2221 15.72679178180941
LEMUR-2-SCHMIDTFALL     
1 46315U 20061AV  23339.23716134  .05562781  24320-5  18433-2 0  9996
2 46315  97.3637  63.0710 0008065 285.5640  74.4761 16.25822130181012
LEMUR-2-SLICERS         
1 46500U 20068Q   23339.32333618  .00022975  00000+0  88482-3 0  9997
2 46500  97.7724 293.6088 0004669 257.1865 102.8851 15.26358324175151
LEMUR-2-DAYWZAGOODDAY   
1 46501U 20068R   23339.43089936  .00023034  00000+0  92279-3 0  9997
2 46501  97.7756 293.9332 0005806 257.8339 102.2248 15.25033421175161
LEMUR-2-SUSURRUS        
1 46502U 20068S   23339.84860402  .00034631  00000+0  13284-2 0  9991
2 46502  97.7743 294.1846 0004598 251.6501 108.4236 15.26400913175239
LEMUR-2-NICHOL          
1 46503U 20068T   23339.83041143  .00022865  00000+0  95987-3 0  9991
2 46503  97.7760 293.5018 0006062 267.9188  92.1354 15.23458588175184
LEMUR-2-OZARAK          
1 46908U 20081D   23339.85326375  .00026034  00000+0  12080-2 0  9994
2 46908  36.8970 246.8742 0007034 230.0093 130.0037 15.19228143169181
LEMUR-2-JINDRA          
1 46909U 20081E   23339.88273814  .00031465  00000+0  12890-2 0  9990
2 46909  36.8961 237.8214 0008361 249.8965 110.0883 15.23411579169297
LEMUR-2-WALLACE         
1 46910U 20081F   23339.86237732  .00031022  00000+0  13390-2 0  9994
2 46910  36.8969 241.3675 0007740 239.0545 120.9443 15.21655005169242
LEMUR-2-JEREMIAH        
1 46911U 20081G   23340.04491287  .00023819  00000+0  11179-2 0  9992
2 46911  36.9025 243.9054 0010892 228.4932 131.4881 15.18826399169245
LEMUR-2-NEVA            
1 47450U 21006AP  23340.17747618  .00190260  00000+0  18462-2 0  9992
2 47450  97.3687  43.5577 0004429 181.7960 178.3285 15.65727889159371
LEMUR-2-SAOIRSEDH5GUO   
1 47453U 21006AS  23340.19055205  .00684213  00000+0  24598-2 0  9994
2 47453  97.3684  45.7573 0003679 251.3098 108.7774 15.87092126159499
LEMUR-2-NALLYWACKER     
1 47457U 21006AW  23340.13342775  .00943346  40098-3  24608-2 0  9995
2 47457  97.3627  45.9421 0003261 262.3309  97.7596 15.95020431159520
LEMUR-2-MANGO1          
1 47493U 21006CJ  23339.15680412  .00056980  00000+0  12278-2 0  9992
2 47493  97.3661  37.8536 0005678 193.4182 166.6917 15.44389869158958
LEMUR-2-RUAIRI-EILIDH   
1 47511U 21006DC  23340.15026035  .00096287  00000+0  15401-2 0  9995
2 47511  97.3627  39.9027 0002628 164.4230 195.7104 15.52805486159187
LEMUR-2-JENNIFERSONG    
1 47525U 21006DR  23339.63264540  .00491567  00000+0  25443-2 0  9993
2 47525  97.3606  44.1490 0002850 206.8036 153.3084 15.79755804159402
LEMUR-2-CHANTAL         
1 47529U 21006DV  23339.14934786  .00040181  00000+0  96465-3 0  9994
2 47529  97.3639  37.0712 0004143 178.3542 181.7719 15.41244569159862
LEMUR-2-NOOBNOOB        
1 47538U 21006DY  23339.93922421  .00048333  00000+0  96551-3 0  9997
2 47538  97.3690  41.2445 0005631 168.9064 191.2311 15.46655365159191
LEMUR-2-AMANDA-SVANTE   
1 48269U 21034B   23340.14138983  .00007921  00000+0  73210-3 0  9992
2 48269  97.6893  44.1815 0004478  96.9543 263.2187 14.94833253141473
LEMUR-2-SPECIAL-K       
1 48273U 21034F   23340.16320949  .00007942  00000+0  73007-3 0  9991
2 48273  97.6884  44.2966 0004377  97.2412 262.9307 14.95046667141491
LEMUR-2-JACKSON         
1 48885U 21059G   23339.37639230  .00142288  00000+0  16140-2 0  9991
2 48885  97.5843 125.2992 0005145 327.1468  32.9469 15.61883976135924
LEMUR-2-ANNABANANA      
1 48923U 21059AW  23340.10910237  .00040973  00000+0  64469-3 0  9992
2 48923  97.5872 127.3399 0004632 354.1622   5.9576 15.53486347136163
LEMUR-2-AC-CUBED        
1 48927U 21059BA  23339.97470379  .00112329  00000+0  13497-2 0  9996
2 48927  97.6055 127.7444 0006673 346.4537  13.6539 15.60470349136126
LEMUR-2-MERIMA          
1 48929U 21059BC  23339.86660956  .00215777  00000+0  16512-2 0  9990
2 48929  97.5760 128.9366 0006832 325.9713  34.1111 15.71467128136241
